     3.03           N: GNSS NAV DATA    M: MIXED            RINEX VERSION / TYPE
BNC 2.12.6          BKG Frankfurt       20190321 091723 UTC PGM / RUN BY / DATE
Concatenated RINEX files (12)                               COMMENT
                                                            END OF HEADER
C12 2019 03 20 15 00 00 5.076389061287e-04 3.042810448051e-11 0.000000000000e+00
     2.100000000000e+01 1.374531250000e+02 3.142630903191e-09-2.951355892528e+00
     6.791204214096e-06 2.502567600459e-03 1.111626625061e-05 5.282613971710e+03
     3.132000000000e+05 4.190951585770e-09-2.481022220694e+00-2.793967723846e-08
     9.866367910969e-01 1.483593750000e+02-2.208066206592e+00-6.549558529688e-09
     5.789526871319e-10 0.000000000000e+00 6.890000000000e+02 0.000000000000e+00
     2.000000000000e+00 0.000000000000e+00 1.600000000000e-09-5.000000000000e-10
     3.132000000000e+05 0.000000000000e+00                                      
C13 2019 03 20 15 00 00-6.042621098459e-04-2.155875478138e-11 0.000000000000e+00
     1.000000000000e+00 5.162656250000e+02 1.872578000390e-09-2.198802915687e+00
     1.692213118076e-05 3.285975428298e-03-3.940891474485e-06 6.493501245499e+03
     3.132000000000e+05-1.634471118450e-07-1.900779022024e+00-2.025626599789e-07
     9.838050849393e-01 3.713437500000e+02-2.796071066349e+00-3.054055785111e-09
     9.046805407187e-10 0.000000000000e+00 6.890000000000e+02 0.000000000000e+00
     2.000000000000e+00 0.000000000000e+00-1.050000000000e-08 2.500000000000e-09
     3.132000000000e+05 0.000000000000e+00                                      
C23 2019 03 20 15 00 00-4.771909443662e-04-4.729550084903e-11 0.000000000000e+00
     1.000000000000e+00-2.040625000000e+01 4.641621913612e-09-8.912296832022e-01
    -8.898787200451e-07 9.802612476051e-05 2.070330083370e-06 5.282614267349e+03
     3.132000000000e+05 3.026798367500e-08 1.719318717600e+00-9.825453162193e-08
     9.565056540484e-01 3.144218750000e+02 1.751340859131e+00-7.488883370623e-09
    -2.257236880119e-10 0.000000000000e+00 6.890000000000e+02 0.000000000000e+00
     2.000000000000e+00 0.000000000000e+00 2.160000000000e-08 2.160000000000e-08
     3.132000000000e+05 1.000000000000e+00                                      
C24 2019 03 20 15 00 00-5.096466047689e-04-6.067502056339e-11 0.000000000000e+00
     1.000000000000e+00-1.279687500000e+01 4.705553148033e-09 1.855034407549e+00
    -6.593763828278e-07 5.364195676520e-04 1.993961632252e-06 5.282607664108e+03
     3.132000000000e+05-1.676380634308e-08 1.719142564708e+00 3.678724169731e-08
     9.564970623305e-01 3.187812500000e+02 5.833948523259e-01-7.443524338381e-09
    -1.235765760318e-10 0.000000000000e+00 6.890000000000e+02 0.000000000000e+00
     2.000000000000e+00 0.000000000000e+00 1.170000000000e-08 1.170000000000e-08
     3.132000000000e+05 1.000000000000e+00                                      
C25 2019 03 20 15 00 00-1.570496242493e-04-1.228794843655e-11 0.000000000000e+00
     1.000000000000e+00-1.564062500000e+01 4.688052419058e-09 1.166635049341e+00
    -6.081536412239e-07 3.444886533543e-04 2.014916390181e-06 5.282615600586e+03
     3.132000000000e+05 8.195638656616e-08 1.692748008629e+00 6.426125764847e-08
     9.575490423326e-01 3.187968750000e+02 4.753727589892e-01-7.512098623346e-09
    -1.039329006511e-10 0.000000000000e+00 6.890000000000e+02 0.000000000000e+00
     2.000000000000e+00 0.000000000000e+00 1.000000000000e-10 1.000000000000e-10
     3.132000000000e+05 1.000000000000e+00                                      
C26 2019 03 20 15 00 00 1.749412622303e-04 1.385558334732e-11 0.000000000000e+00
     1.000000000000e+00-7.312500000000e+00 4.653408118841e-09 2.942315104149e+00
    -4.498288035393e-07 5.854218034074e-04 2.066604793072e-06 5.282611120224e+03
     3.132000000000e+05-5.494803190231e-08 1.693283841874e+00 2.561137080193e-08
     9.576073088967e-01 3.164843750000e+02 2.587729340857e-01-7.444238653849e-09
    -1.300054152474e-10 0.000000000000e+00 6.890000000000e+02 0.000000000000e+00
     2.000000000000e+00 0.000000000000e+00-5.800000000000e-09-5.800000000000e-09
     3.132000000000e+05 1.000000000000e+00                                      
C19 2019 03 20 15 00 00 6.612739525740e-05 7.672085189370e-12 0.000000000000e+00
     1.000000000000e+00-1.314687500000e+02 3.626936790760e-09 1.900379528360e+00
    -6.499700248240e-06 8.764807134870e-04 1.333840191360e-05 5.282634469990e+03
     3.132000000000e+05 6.426125764850e-08-3.974126534890e-01-1.024454832080e-08
     9.618621183550e-01 9.215625000000e+01-1.303307992420e+00-6.775996533170e-09
    -4.110885520600e-10 0.000000000000e+00 6.890000000000e+02 0.000000000000e+00
     2.000000000000e+00 0.000000000000e+00 8.599999823390e-09 8.600000000000e-09
     3.166200000000e+05 1.000000000000e+00                                      
C20 2019 03 20 15 00 00 2.819165820256e-04-6.639133687258e-12 0.000000000000e+00
     1.000000000000e+00-1.213750000000e+02 3.586220809063e-09 2.266842193956e+00
    -6.239395588636e-06 8.309668628499e-04 1.321034505963e-05 5.282637657166e+03
     3.132000000000e+05 7.217749953270e-08-3.967993177700e-01 2.281740307808e-08
     9.618632462650e-01 9.204687500000e+01-8.941654072240e-01-6.779925268244e-09
    -3.821587755898e-10 0.000000000000e+00 6.890000000000e+02 0.000000000000e+00
     2.000000000000e+00 0.000000000000e+00 1.490000000000e-08 1.490000000000e-08
     3.144300000000e+05 1.000000000000e+00                                      
C08 2019 03 20 16 00 00 1.323590986431e-04 6.860290113764e-12 0.000000000000e+00
     1.000000000000e+00 4.602812500000e+02 1.750072897561e-09-1.678056267608e+00
     1.496495679021e-05 3.978941822425e-03-4.271976649761e-06 6.493194169998e+03
     3.168000000000e+05 1.862645149231e-09-1.885748410659e+00-3.334134817123e-07
     1.023047490834e+00 3.957187500000e+02-2.659167039267e+00-2.961909089688e-09
     8.114623720935e-10 0.000000000000e+00 6.890000000000e+02 0.000000000000e+00
     2.000000000000e+00 0.000000000000e+00 9.800000000000e-09-8.000000000000e-10
     3.168000000000e+05 0.000000000000e+00                                      
C11 2019 03 20 16 00 00-6.033491808921e-05-1.888267320282e-11-2.303929616532e-19
     1.200000000000e+01 1.183125000000e+02 3.260135797742e-09 2.542154275661e+00
     5.837529897690e-06 2.045399043709e-03 1.062173396349e-05 5.282616067886e+03
     3.168000000000e+05 1.443549990654e-08-2.470488906236e+00-3.492459654808e-08
     9.878168173926e-01 1.573437500000e+02-2.113057618063e+00-6.578845463892e-09
     4.918061999880e-10 0.000000000000e+00 6.890000000000e+02 0.000000000000e+00
     2.000000000000e+00 0.000000000000e+00 3.000000000000e-09 1.300000000000e-09
     3.168000000000e+05 1.100000000000e+01                                      
C12 2019 03 20 16 00 00 5.077507812530e-04 3.077094135051e-11 0.000000000000e+00
     2.000000000000e+01 1.383750000000e+02 3.110843864848e-09-2.463505641915e+00
     6.824266165495e-06 2.501415554434e-03 1.165829598904e-05 5.282616447449e+03
     3.168000000000e+05 7.450580596924e-09-2.481045701992e+00-6.146728992462e-08
     9.866389064764e-01 1.386250000000e+02-2.208349348534e+00-6.550272845156e-09
     5.543088034723e-10 0.000000000000e+00 6.890000000000e+02 0.000000000000e+00
     2.000000000000e+00 0.000000000000e+00 1.600000000000e-09-5.000000000000e-10
     3.168000000000e+05 1.000000000000e+00                                      
C13 2019 03 20 16 00 00-6.043411558494e-04-2.176481217475e-11 0.000000000000e+00
     1.000000000000e+00 5.170468750000e+02 1.902936407797e-09-1.936664380565e+00
     1.694262027740e-05 3.286399180070e-03-4.347413778305e-06 6.493498245239e+03
     3.168000000000e+05-1.434236764908e-07-1.900789723270e+00-2.682209014893e-07
     9.838083750420e-01 3.868593750000e+02-2.795699887459e+00-3.057270204718e-09
     8.771793951856e-10 0.000000000000e+00 6.890000000000e+02 0.000000000000e+00
     2.000000000000e+00 0.000000000000e+00-1.050000000000e-08 2.500000000000e-09
     3.168000000000e+05 0.000000000000e+00                                      
C22 2019 03 20 16 00 00 3.431477816775e-04-1.402256089023e-11 0.000000000000e+00
     1.000000000000e+00-1.418281250000e+02 3.618007847406e-09 7.965319940233e-01
    -6.901565939188e-06 6.351209012792e-04 1.328950747848e-05 5.282632728577e+03
     3.168000000000e+05 5.587935447693e-08-3.947457845521e-01 1.071020960808e-08
     9.611604516422e-01 9.070312500000e+01-4.989461975118e-01-6.773496429029e-09
    -4.175173912752e-10 0.000000000000e+00 6.890000000000e+02 0.000000000000e+00
     2.000000000000e+00 0.000000000000e+00 1.240000000000e-08 1.240000000000e-08
     3.197700000000e+05 1.000000000000e+00                                      
C23 2019 03 20 16 00 00-4.773610271513e-04-4.727596092380e-11 0.000000000000e+00
     1.000000000000e+00-1.995312500000e+01 4.679837791171e-09-4.032581742359e-01
    -8.214265108109e-07 9.802903514355e-05 2.150889486074e-06 5.282614311218e+03
     3.168000000000e+05 1.047737896442e-07 1.719291284960e+00-1.210719347000e-08
     9.565047850750e-01 3.146562500000e+02 1.750942496297e+00-7.512812938815e-09
    -1.457203555520e-10 0.000000000000e+00 6.890000000000e+02 0.000000000000e+00
     2.000000000000e+00 0.000000000000e+00 2.160000000000e-08 2.160000000000e-08
     3.168000000000e+05 1.000000000000e+00                                      
